OBJECT_NAME,OBJECT_ID,EPOCH,MEAN_MOTION,ECCENTRICITY,INCLINATION,RA_OF_ASC_NODE,ARG_OF_PERICENTER,MEAN_ANOMALY,EPHEMERIS_TYPE,CLASSIFICATION_TYPE,NORAD_CAT_ID,ELEMENT_SET_NO,REV_AT_EPOCH,BSTAR,MEAN_MOTION_DOT,MEAN_MOTION_DDOT
ONEWEB-0550,2023-043G,2026-06-19T11:59:33.147744,13.21825830,.00018613,87.9253,243.5181,94.1516,265.9831,0,U,56052,999,15853,-.24417842E-3,-.88E-6,0
ONEWEB-0551,2023-043H,2026-06-19T12:18:43.562880,13.15549179,.00020011,87.9000,258.7629,111.0705,249.0639,0,U,56053,999,15670,-.11145848E-3,-.29E-6,0
ONEWEB-0552,2023-043J,2026-06-19T13:41:14.603424,13.21826045,.00017918,87.9251,243.5095,101.7510,258.3825,0,U,56054,999,15854,-.89878921E-3,-.358E-5,0
ONEWEB-0553,2023-043K,2026-06-19T11:05:02.914656,13.16595417,.00023821,87.9095,228.3227,92.1072,268.0332,0,U,56055,999,15927,.20627567E-3,.92E-6,0
ONEWEB-0554,2023-043L,2026-06-19T10:46:49.495872,13.16595529,.00019158,87.9093,228.3342,82.8048,277.3301,0,U,56056,999,15925,.16836695E-3,.77E-6,0
ONEWEB-0555,2023-043M,2026-06-19T13:30:55.946592,13.16594464,.00026233,87.9102,228.2999,92.6707,267.4724,0,U,56057,999,15927,-.89091778E-3,-.328E-5,0
ONEWEB-0557,2023-043N,2026-06-19T10:12:36.373536,13.16594688,.00026658,87.9096,228.3372,69.7318,290.4099,0,U,56058,999,15925,.11248305E-3,.56E-6,0
ONEWEB-0558,2023-043P,2026-06-19T13:31:33.151296,13.21827865,.00021953,87.9254,243.5057,107.1754,252.9621,0,U,56059,999,15855,-.13877354E-3,-.44E-6,0
ONEWEB-0559,2023-043Q,2026-06-19T11:25:35.823648,13.21825947,.00019377,87.9257,243.5182,105.3150,254.8198,0,U,56060,999,15855,.44829891E-4,.32E-6,0
ONEWEB-0566,2023-043R,2026-06-19T11:15:55.744416,13.21827284,.00019322,87.9255,243.5177,108.6280,251.5064,0,U,56061,999,15853,.18380925E-3,.89E-6,0
ONEWEB-0568,2023-043S,2026-06-19T05:09:23.343264,13.16594433,.00023382,87.9092,228.3687,94.6257,265.5141,0,U,56062,999,15924,.29509625E-3,.126E-5,0
ONEWEB-0574,2023-043T,2026-06-19T11:06:14.340672,13.21824775,.00020529,87.9263,243.5218,93.7163,266.4206,0,U,56063,999,15857,.10154887E-3,.55E-6,0
ONEWEB-0575,2023-043U,2026-06-19T10:28:34.717152,13.16594449,.00022348,87.9093,228.3211,86.6245,273.5142,0,U,56064,999,15926,.15074727E-3,.7E-6,0
ONEWEB-0576,2023-043V,2026-06-19T13:40:04.895904,13.16593915,.0002153,87.9098,228.3026,91.0028,269.1350,0,U,56065,999,15927,-.20546396E-3,-.66E-6,0
ONEWEB-0577,2023-043W,2026-06-19T10:10:20.417952,13.16593422,.00021433,87.9099,228.3291,75.9770,284.1599,0,U,56066,999,15928,-.15970914E-3,-.48E-6,0
ONEWEB-0578,2023-043X,2026-06-19T10:46:52.037760,13.21825090,.00023291,87.9254,243.5225,96.1510,263.9889,0,U,56067,999,15853,.19111702E-3,.92E-6,0
ONEWEB-0579,2023-043Y,2026-06-19T10:34:45.937344,13.21826679,.00017685,87.9261,243.5209,103.4494,256.6837,0,U,56068,999,15854,.67758518E-4,.41E-6,0
ONEWEB-0581,2023-043Z,2026-06-19T10:19:26.452992,13.16592693,.00020036,87.9096,228.3390,81.1536,278.9821,0,U,56069,999,15925,-.15378953E-3,-.46E-6,0
ONEWEB-0609,2023-043AA,2026-06-19T12:56:22.938432,13.15549659,.00020273,87.9001,258.7431,102.4455,257.6902,0,U,56070,999,15674,.64033693E-3,.254E-5,0
ONEWEB-0613,2023-043AB,2026-06-19T12:52:56.652384,13.15550256,.00017786,87.8998,258.7558,107.6476,252.4848,0,U,56071,999,15674,.26527673E-3,.113E-5,0
ONEWEB-0630,2023-043AC,2026-06-19T12:46:06.762144,13.15546951,.00018104,87.9005,258.7281,105.2709,254.8621,0,U,56072,999,15673,.20102076E-3,.88E-6,0
ONEWEB-0632,2023-043AD,2026-06-19T12:39:16.767360,13.15549154,.00019028,87.9001,258.7471,95.7121,264.4227,0,U,56073,999,15673,.47174893E-3,.19E-5,0
ONEWEB-0633,2023-043AE,2026-06-19T12:30:08.402112,13.15547859,.00018895,87.9010,258.7240,112.9565,247.1765,0,U,56074,999,15671,.15918432E-3,.73E-6,0
ONEWEB-0634,2023-043AF,2026-06-19T12:09:37.042272,13.15548685,.00023409,87.9002,258.7669,102.8788,257.2604,0,U,56075,999,15670,-.30660024E-3,-.103E-5,0
ONEWEB-0635,2023-043AG,2026-06-19T12:02:44.824416,13.15546592,.00019411,87.9013,258.7309,92.7610,267.3743,0,U,56076,999,15673,-.25176561E-3,-.82E-6,0
ONEWEB-0636,2023-043AH,2026-06-19T11:51:21.365856,13.15550010,.00019738,87.9012,258.7385,94.7353,265.4003,0,U,56077,999,15671,-.29899198E-4,.2E-7,0
ONEWEB-0637,2023-043AJ,2026-06-19T11:42:14.282784,13.15549770,.00022483,87.9004,258.7562,95.1973,264.9414,0,U,56078,999,15673,.11441224E-3,.56E-6,0
ONEWEB-0647,2023-043AK,2026-06-19T11:35:24.042624,13.15548777,.00019051,87.8999,258.7695,97.4110,262.7236,0,U,56079,999,15672,.71859703E-4,.4E-6,0
ONEWEB-0651,2023-043AL,2026-06-19T13:18:04.323744,13.15549494,.00020657,87.9002,258.7490,93.7471,266.3895,0,U,56080,999,15793,.5109266E-3,.205E-5,0
ONEWEB-0718,2023-043AM,2026-06-19T11:21:41.357376,13.15549390,.00024301,87.9002,258.7457,115.7948,244.3433,0,U,56081,999,15673,-.12825085E-2,-.47E-5,0
ONEWEB-0561,2023-068A,2026-06-19T07:39:10.174464,13.20773479,.00017035,87.9196,274.0182,91.8991,268.2337,0,U,56710,999,14978,.15634687E-3,.77E-6,0
ONEWEB-0668,2023-068B,2026-06-19T13:21:50.747040,13.16595086,.00025807,87.9100,228.3021,97.0180,263.1244,0,U,56711,999,15209,.160523E-3,.74E-6,0
ONEWEB-0676,2023-068C,2026-06-19T13:33:14.044032,13.16593471,.00019916,87.9099,228.3064,88.0011,272.1348,0,U,56712,999,15201,-.56418125E-4,-.9E-7,0
ONEWEB-0677,2023-068D,2026-06-19T12:49:27.652512,13.20771030,.00022289,87.9198,273.9669,91.3646,268.7743,0,U,56713,999,15011,.26837924E-3,.122E-5,0
ONEWEB-0678,2023-068E,2026-06-19T12:25:35.100768,13.15548900,.00017268,87.9009,258.7292,103.3413,256.7910,0,U,56714,999,14959,.19714012E-3,.87E-6,0
ONEWEB-0679,2023-068F,2026-06-19T10:44:30.707232,13.16600408,.0002381,87.9084,228.3214,89.4114,270.7290,0,U,56715,999,15202,.27268553E-2,.1056E-4,0
ONEWEB-0680,2023-068G,2026-06-19T05:10:08.697216,13.21828037,.00025994,87.9260,243.5677,96.0482,264.0949,0,U,56716,999,15136,.19477975E-3,.93E-6,0
ONEWEB-0681,2023-068H,2026-06-19T11:58:18.271776,13.21827690,.00018403,87.9255,243.5123,70.1621,289.9711,0,U,56717,999,15139,-.13974197E-3,-.45E-6,0
ONEWEB-0682,2023-068J,2026-06-19T07:31:15.364992,13.15548476,.00024883,87.9009,258.7704,97.8566,262.2847,0,U,56718,999,14973,.36610397E-3,.151E-5,0
ONEWEB-0683,2023-068K,2026-06-19T11:44:31.313184,13.15549580,.00022788,87.9014,258.7352,102.0824,258.0562,0,U,56719,999,14972,.5654882E-4,.34E-6,0
ONEWEB-0684,2023-068L,2026-06-19T11:55:55.783488,13.15548706,.00016708,87.9011,258.7237,142.1511,217.9738,0,U,56720,999,14955,-.25979831E-3,-.85E-6,0
ONEWEB-0686,2023-068M,2026-06-19T13:26:24.298944,13.16595349,.00022477,87.9086,228.3220,104.6241,255.5139,0,U,56721,999,15202,-.82245557E-4,-.19E-6,0
ONEWEB-0694,2023-068N,2026-06-19T13:35:31.172064,13.16595258,.00025495,87.9107,228.2856,96.5690,263.5731,0,U,56722,999,15208,-.28569441E-4,.2E-7,0
ONEWEB-0696,2023-068P,2026-06-19T12:43:49.865664,13.15546811,.00014849,87.9000,258.7552,104.8909,255.2386,0,U,56723,999,14967,.51002236E-3,.205E-5,0
ONEWEB-0703,2023-068Q,2026-06-19T12:57:31.553856,13.15564557,.00014366,87.8962,258.7337,81.8010,278.3283,0,U,56724,999,14956,-.91148938E-3,-.33E-5,0
ONEWEB-0721,2023-068R,2026-06-19T11:38:52.264032,13.22469367,.0001893,86.6766,84.7830,78.0447,282.0899,0,U,56725,999,15824,.21699292E-3,.105E-5,0
ONEWEB-0015,2024-188A,2026-06-19T12:31:46.085088,13.11413883,.00021241,87.8882,20.6282,73.1004,287.0356,0,U,61594,999,8476,-.94872099E-3,-.324E-5,0
ONEWEB-0687,2024-188B,2026-06-19T14:02:07.137312,13.17647922,.00023506,87.9127,5.3994,85.8551,274.2850,0,U,61595,999,8621,-.11055591E-3,-.3E-6,0
ONEWEB-0688,2024-188C,2026-06-19T05:36:41.178816,13.17649277,.00025943,87.9127,5.4690,62.6048,297.5347,0,U,61596,999,8616,-.987081E-5,.9E-7,0
ONEWEB-0689,2024-188D,2026-06-19T13:20:35.541888,13.11419572,.00021107,87.8899,20.5799,90.8436,269.2934,0,U,61597,999,8476,-.47776528E-4,-.4E-7,0
ONEWEB-0690,2024-188E,2026-06-19T13:35:16.164384,13.11417357,.00012322,87.8892,20.5894,77.6631,282.4635,0,U,61598,999,8494,.14102758E-2,.513E-5,0
ONEWEB-0691,2024-188F,2026-06-19T13:27:56.787552,13.11419066,.00021206,87.8904,20.4993,78.4223,281.7143,0,U,61599,999,8479,.92480601E-3,.34E-5,0
ONEWEB-0692,2024-188G,2026-06-19T13:57:14.498784,13.11414500,.00019758,87.8884,20.6081,110.0247,250.1094,0,U,61600,999,8478,.99514401E-3,.365E-5,0
ONEWEB-0693,2024-188H,2026-06-19T02:14:59.862624,13.17648596,.00012454,87.9123,5.5170,69.1032,291.0233,0,U,61601,999,8613,-.592226E-5,.11E-6,0
ONEWEB-0695,2024-188J,2026-06-19T13:23:03.624576,13.11417889,.0002154,87.8879,20.6046,99.0448,261.0924,0,U,61602,999,8477,.53002397E-3,.201E-5,0
ONEWEB-0697,2024-188K,2026-06-19T12:19:34.309920,13.11413998,.00018826,87.8883,20.6039,110.4485,249.6845,0,U,61603,999,8475,.15770044E-3,.69E-6,0
ONEWEB-0698,2024-188L,2026-06-19T13:37:42.589920,13.11417050,.00010701,87.8883,20.6070,123.9381,236.1849,0,U,61604,999,8478,.14602826E-2,.53E-5,0
ONEWEB-0699,2024-188M,2026-06-19T13:58:48.431136,13.10387724,.0001769,87.8825,35.7900,105.6222,254.5101,0,U,61605,999,8362,.20595539E-1,.7209E-4,0
ONEWEB-0700,2024-188N,2026-06-19T14:01:12.582624,13.10411213,.00020019,87.8857,35.6978,103.1295,257.0056,0,U,61606,999,8361,.28279285E-2,.1E-4,0
ONEWEB-0701,2024-188P,2026-06-19T08:55:26.138784,13.10353139,.00017317,87.8836,35.8307,109.6673,250.4641,0,U,61607,999,8359,-.33941805E-2,-.1172E-4,0
ONEWEB-0702,2024-188Q,2026-06-19T07:24:08.144640,13.11417389,.00021916,87.8902,20.5650,114.2948,245.8409,0,U,61608,999,8476,-.20495684E-2,-.714E-5,0
ONEWEB-0704,2024-188R,2026-06-19T01:18:46.478304,13.10391598,.00022188,87.8846,35.8832,110.0158,250.1208,0,U,61609,999,8353,.37228413E-2,.1313E-4,0
ONEWEB-0705,2024-188S,2026-06-19T08:45:47.166336,13.10376783,.00027225,87.8843,35.8270,95.5558,264.5880,0,U,61610,999,7574,-.11095151E-2,-.375E-5,0
ONEWEB-0706,2024-188T,2026-06-19T08:24:07.220448,13.10421133,.00026353,87.8865,35.8328,94.0796,266.0633,0,U,61611,999,8366,.70080182E-2,.2461E-4,0
ONEWEB-0707,2024-188U,2026-06-19T14:03:37.647360,13.10406564,.00020718,87.8837,35.7825,99.1641,260.9720,0,U,61612,999,8363,.10029489E-2,.363E-5,0
